SL-16 R/B               
1 22566U 93016B   26056.48209670  .00000194  00000+0  12427-3 0  9997
2 22566  71.0046 240.8220 0010990 331.1212  28.9301 14.15301000700444
COSMOS 2242             
1 22626U 93024A   26056.66738109  .00001697  00000+0  14679-3 0  9997
2 22626  82.5166 278.2181 0016143 351.3612   8.7330 14.96492971778592
SL-16 R/B               
1 22803U 93059B   26056.40751362  .00000266  00000+0  15526-3 0  9993
2 22803  70.9904  37.0259 0018990 233.4536 126.4840 14.17229270677791
ARIANE 40 R/B           
1 22830U 93061H   26056.19888695  .00000172  00000+0  78772-4 0  9991
2 22830  98.4944 125.3315 0009871 326.0872  33.9680 14.32853377692311
COSMOS 2278             
1 23087U 94023A   26056.78684441  .00000398  00000+0  23260-3 0  9994
2 23087  71.0530 199.9980 0007403  37.1728 322.9906 14.14370564643127
SL-16 R/B               
1 23088U 94023B   26056.55591892  .00000084  00000+0  67992-4 0  9990
2 23088  70.9989  96.3714 0005283 297.1927  62.8657 14.15012742644375
SL-16 R/B               
1 23343U 94074B   26056.70030214  .00000443  00000+0  66088-4 0  9997
2 23343  97.7126  88.0028 0005142 257.7511 236.8132 14.79391605685475
SL-16 R/B               
1 23405U 94077B   26056.33026100 -.00000116  00000+0 -34941-4 0  9999
2 23405  70.9847  18.4885 0003701 226.5465 133.5351 14.15563959614488
ARIANE 40+ R/B          
1 23561U 95021B   26056.23612673  .00000275  00000+0  10170-3 0  9998
2 23561  98.4523 127.8857 0007077 170.0389 241.0517 14.39762245617453
SL-16 R/B               
1 23705U 95058B   26056.83131076 -.00000231  00000+0 -94043-4 0  9993
2 23705  71.0206 205.1494 0011146 146.8496 213.3327 14.15493675566172
SL-16 R/B               
1 24298U 96051B   26056.48898450  .00000091  00000+0  75651-4 0  9998
2 24298  70.7588 201.0615 0016175 165.7208 194.4372 14.12412081519926
ORBVIEW 2 (SEASTAR)     
1 24883U 97037A   26056.42909143  .00000287  00000+0  11594-3 0  9991
2 24883  98.8546 220.4175 0003211  96.6509 263.5041 14.35483973506717
